CCSDS_OMM_VERS = 2.0
CREATION_DATE  = 
ORIGINATOR     = 

OBJECT_NAME    = CZ-2C R/B
OBJECT_ID      = 2022-132E
CENTER_NAME    = EARTH
REF_FRAME      = TEME
TIME_SYSTEM    = UTC
MEAN_ELEMENT_THEORY = SGP/SGP4

EPOCH          = 2026-02-06T23:24:34.076160
MEAN_MOTION    = 15.59201996
ECCENTRICITY   = .00179382
INCLINATION    = 97.2961
RA_OF_ASC_NODE = 40.4283
ARG_OF_PERICENTER = 196.3338
MEAN_ANOMALY   = 163.7343

EPHEMERIS_TYPE = 0
CLASSIFICATION_TYPE = U
NORAD_CAT_ID   = 54039
ELEMENT_SET_NO = 999
REV_AT_EPOCH   = 18558
BSTAR          = .60049356E-3
MEAN_MOTION_DOT = .475E-3
MEAN_MOTION_DDOT = 0

CCSDS_OMM_VERS = 2.0
CREATION_DATE  = 
ORIGINATOR     = 

OBJECT_NAME    = GSLV R/B
OBJECT_ID      = 2022-138AN
CENTER_NAME    = EARTH
REF_FRAME      = TEME
TIME_SYSTEM    = UTC
MEAN_ELEMENT_THEORY = SGP/SGP4

EPOCH          = 2026-02-06T21:32:54.652992
MEAN_MOTION    = 14.96537141
ECCENTRICITY   = .00193441
INCLINATION    = 87.3862
RA_OF_ASC_NODE = 176.6659
ARG_OF_PERICENTER = 262.8221
MEAN_ANOMALY   = 97.0811

EPHEMERIS_TYPE = 0
CLASSIFICATION_TYPE = U
NORAD_CAT_ID   = 54149
ELEMENT_SET_NO = 999
REV_AT_EPOCH   = 17932
BSTAR          = .38170359E-3
MEAN_MOTION_DOT = .4381E-4
MEAN_MOTION_DDOT = 0

CCSDS_OMM_VERS = 2.0
CREATION_DATE  = 
ORIGINATOR     = 

OBJECT_NAME    = XRISM
OBJECT_ID      = 2023-137A
CENTER_NAME    = EARTH
REF_FRAME      = TEME
TIME_SYSTEM    = UTC
MEAN_ELEMENT_THEORY = SGP/SGP4

EPOCH          = 2026-02-06T08:02:10.646016
MEAN_MOTION    = 15.11106214
ECCENTRICITY   = .00079965
INCLINATION    = 31.0019
RA_OF_ASC_NODE = 126.4010
ARG_OF_PERICENTER = 85.4035
MEAN_ANOMALY   = 274.7516

EPHEMERIS_TYPE = 0
CLASSIFICATION_TYPE = U
NORAD_CAT_ID   = 57800
ELEMENT_SET_NO = 999
REV_AT_EPOCH   = 13304
BSTAR          = .4917917E-3
MEAN_MOTION_DOT = .8547E-4
MEAN_MOTION_DDOT = 0

CCSDS_OMM_VERS = 2.0
CREATION_DATE  = 
ORIGINATOR     = 

OBJECT_NAME    = ACS3
OBJECT_ID      = 2024-077B
CENTER_NAME    = EARTH
REF_FRAME      = TEME
TIME_SYSTEM    = UTC
MEAN_ELEMENT_THEORY = SGP/SGP4

EPOCH          = 2026-02-06T19:25:06.726432
MEAN_MOTION    = 13.88347007
ECCENTRICITY   = .00454691
INCLINATION    = 97.2238
RA_OF_ASC_NODE = 345.8632
ARG_OF_PERICENTER = 174.1822
MEAN_ANOMALY   = 185.9879

EPHEMERIS_TYPE = 0
CLASSIFICATION_TYPE = U
NORAD_CAT_ID   = 59588
ELEMENT_SET_NO = 999
REV_AT_EPOCH   = 8991
BSTAR          = .22704008E-1
MEAN_MOTION_DOT = .27485E-3
MEAN_MOTION_DDOT = 0

CCSDS_OMM_VERS = 2.0
CREATION_DATE  = 
ORIGINATOR     = 

OBJECT_NAME    = SZ-21 MODULE
OBJECT_ID      = 2025-246C
CENTER_NAME    = EARTH
REF_FRAME      = TEME
TIME_SYSTEM    = UTC
MEAN_ELEMENT_THEORY = SGP/SGP4

EPOCH          = 2026-02-06T08:11:14.106336
MEAN_MOTION    = 15.66184885
ECCENTRICITY   = .00030134
INCLINATION    = 41.4763
RA_OF_ASC_NODE = 35.9805
ARG_OF_PERICENTER = 279.0982
MEAN_ANOMALY   = 80.9518

EPHEMERIS_TYPE = 0
CLASSIFICATION_TYPE = U
NORAD_CAT_ID   = 66515
ELEMENT_SET_NO = 999
REV_AT_EPOCH   = 1315
BSTAR          = .36895415E-3
MEAN_MOTION_DOT = .38963E-3
MEAN_MOTION_DDOT = 0

