CZ-2C R/B               
1 54039U 22132E   26037.97539440  .00047500  00000+0  60049-3 0  9997
2 54039  97.2961  40.4283 0017938 196.3338 163.7343 15.59201996185580
GSLV R/B                
1 54149U 22138AN  26037.89785478  .00004381  00000+0  38170-3 0  9990
2 54149  87.3862 176.6659 0019344 262.8221  97.0811 14.96537141179322
XRISM                   
1 57800U 23137A   26037.33484544  .00008547  00000+0  49179-3 0  9995
2 57800  31.0019 126.4010 0007996  85.4035 274.7516 15.11106214133041
ACS3                    
1 59588U 24077B   26037.80910563  .00027485  00000+0  22704-1 0  9996
2 59588  97.2238 345.8632 0045469 174.1822 185.9879 13.88347007 89917
SZ-21 MODULE            
1 66515U 25246C   26037.34113549  .00038963  00000+0  36895-3 0  9992
2 66515  41.4763  35.9805 0003013 279.0982  80.9518 15.66184885 13157
